IRIDIUM 126             
1 42809U 17039G   25177.88735003  .00000004  00000+0 -57672-5 0  9995
2 42809  86.3993 142.1733 0002397  85.8880 274.2590 14.34217382419022
IRIDIUM 124             
1 42810U 17039H   25177.73184152  .00000284  00000+0  78323-4 0  9998
2 42810  86.4480  78.9785 0002151  78.0231 282.1211 14.43280613423841
IRIDIUM 128             
1 42811U 17039J   25177.94785425  .00000012  00000+0 -27110-5 0  9991
2 42811  86.3992 173.6193 0002118  79.9916 280.1519 14.34217703419066
IRIDIUM 121             
1 42812U 17039K   25177.83660793  .00000058  00000+0  13579-4 0  9992
2 42812  86.3988 142.2195 0002186  86.0989 274.0457 14.34217649418892
IRIDIUM 133             
1 42955U 17061A   25177.42142051  .00000020  00000+0 -32052-7 0  9992
2 42955  86.4000 173.9478 0002244  86.9014 273.2439 14.34217676403787
IRIDIUM 100             
1 42956U 17061B   25177.41507855 -.00000070  00000+0 -32182-4 0  9996
2 42956  86.3998 173.8777 0002310  83.7761 276.3698 14.34217053403782
IRIDIUM 122             
1 42957U 17061C   25177.45313303 -.00000007  00000+0 -94617-5 0  9996
2 42957  86.3998 173.8609 0002295  86.7446 273.4012 14.34217626403797
IRIDIUM 129             
1 42958U 17061D   25177.47850294 -.00000015  00000+0 -12581-4 0  9992
2 42958  86.3999 173.9134 0002372  98.0633 262.0832 14.34217302403811
